{"type": "FeatureCollection", "features": [ {"type": "Feature", "properties": {"norad_id": 34870, "name": "IRIDIUM 33 DEB", "group": "iridium-33-debris", "lat": -64.76222053084055, "lon": 135.16032538497106, "alt_km": 652.1553862311239, "timestamp": "2025-12-27T13:34:49.680851+00:00", "meta": {"OBJECT_NAME": "IRIDIUM 33 DEB", "OBJECT_ID": "1997-051MQ", "EPOCH": "2025-12-27T02:46:31.066176", "MEAN_MOTION": 14.76712058, "ECCENTRICITY": 0.00184241, "INCLINATION": 86.3107, "RA_OF_ASC_NODE": 307.499, "ARG_OF_PERICENTER": 132.9493, "MEAN_ANOMALY": 239.9601, "EPHEMERIS_TYPE": 0, "CLASSIFICATION_TYPE": "U", "NORAD_CAT_ID": 34870, "ELEMENT_SET_NO": 999, "REV_AT_EPOCH": 89123, "BSTAR": 0.0017741165, "MEAN_MOTION_DOT": 0.00012485, "MEAN_MOTION_DDOT": 0}, "tle": {"line1": "1 34870U 97051MQ  25361.11563734  .00012485  00000+0  17741-2 0  9992", "line2": "2 34870  86.3107 307.4990 0018424 132.9493 239.9601 14.76712058891235"}}, "geometry": {"type": "Point", "coordinates": [135.16032538497106, -64.76222053084055]}}, {"type": "Feature", "properties": {"norad_id": 34896, "name": "IRIDIUM 33 DEB", "group": "iridium-33-debris", "lat": -80.57815794185571, "lon": 162.79107267000387, "alt_km": 682.8658412589684, "timestamp": "2025-12-27T13:34:49.680861+00:00", "meta": {"OBJECT_NAME": "IRIDIUM 33 DEB", "OBJECT_ID": "1997-051MY", "EPOCH": "2025-12-24T04:12:44.288640", "MEAN_MOTION": 14.66381715, "ECCENTRICITY": 0.00257287, "INCLINATION": 86.3299, "RA_OF_ASC_NODE": 321.5555, "ARG_OF_PERICENTER": 173.6101, "MEAN_ANOMALY": 201.3064, "EPHEMERIS_TYPE": 0, "CLASSIFICATION_TYPE": "U", "NORAD_CAT_ID": 34896, "ELEMENT_SET_NO": 999, "REV_AT_EPOCH": 87787, "BSTAR": 0.00093038371, "MEAN_MOTION_DOT": 5.188e-05, "MEAN_MOTION_DDOT": 0}, "tle": {"line1": "1 34896U 97051MY  25358.17551260  .00005188  00000+0  93038-3 0  9999", "line2": "2 34896  86.3299 321.5555 0025728 173.6101 201.3064 14.66381715877873"}}, "geometry": {"type": "Point", "coordinates": [162.79107267000387, -80.57815794185571]}}, {"type": "Feature", "properties": {"norad_id": 34926, "name": "IRIDIUM 33 DEB", "group": "iridium-33-debris", "lat": 86.02403743199788, "lon": 78.2438782711262, "alt_km": 748.0053685896964, "timestamp": "2025-12-27T13:34:49.680871+00:00", "meta": {"OBJECT_NAME": "IRIDIUM 33 DEB", "OBJECT_ID": "1997-051NF", "EPOCH": "2025-12-27T06:37:36.803424", "MEAN_MOTION": 14.55091607, "ECCENTRICITY": 0.00742635, "INCLINATION": 86.1305, "RA_OF_ASC_NODE": 1.5275, "ARG_OF_PERICENTER": 242.2402, "MEAN_ANOMALY": 130.5101, "EPHEMERIS_TYPE": 0, "CLASSIFICATION_TYPE": "U", "NORAD_CAT_ID": 34926, "ELEMENT_SET_NO": 999, "REV_AT_EPOCH": 86668, "BSTAR": 0.0059756745, "MEAN_MOTION_DOT": 0.00026846, "MEAN_MOTION_DDOT": 0}, "tle": {"line1": "1 34926U 97051NF  25361.27612041  .00026846  00000+0  59757-2 0  9996", "line2": "2 34926  86.1305   1.5275 0074263 242.2402 130.5101 14.55091607866680"}}, "geometry": {"type": "Point", "coordinates": [78.2438782711262, 86.02403743199788]}}, {"type": "Feature", "properties": {"norad_id": 34985, "name": "IRIDIUM 33 DEB", "group": "iridium-33-debris", "lat": -76.928105333621, "lon": -113.57168210167727, "alt_km": 758.1522899218944, "timestamp": "2025-12-27T13:34:49.680882+00:00", "meta": {"OBJECT_NAME": "IRIDIUM 33 DEB", "OBJECT_ID": "1997-051NR", "EPOCH": "2025-12-26T21:58:10.172064", "MEAN_MOTION": 14.42068347, "ECCENTRICITY": 0.0022221, "INCLINATION": 86.3683, "RA_OF_ASC_NODE": 50.8313, "ARG_OF_PERICENTER": 172.8188, "MEAN_ANOMALY": 309.665, "EPHEMERIS_TYPE": 0, "CLASSIFICATION_TYPE": "U", "NORAD_CAT_ID": 34985, "ELEMENT_SET_NO": 999, "REV_AT_EPOCH": 87379, "BSTAR": 0.00068645, "MEAN_MOTION_DOT": 2.28e-05, "MEAN_MOTION_DDOT": 0}, "tle": {"line1": "1 34985U 97051NR  25360.91539551  .00002280  00000+0  68645-3 0  9998", "line2": "2 34985  86.3683  50.8313 0022221 172.8188 309.6650 14.42068347873791"}}, "geometry": {"type": "Point", "coordinates": [-113.57168210167727, -76.928105333621]}}, {"type": "Feature", "properties": {"norad_id": 35051, "name": "IRIDIUM 33 DEB", "group": "iridium-33-debris", "lat": 51.862222971094255, "lon": 177.70376151162444, "alt_km": 727.3693090444604, "timestamp": "2025-12-27T13:34:49.680892+00:00", "meta": {"OBJECT_NAME": "IRIDIUM 33 DEB", "OBJECT_ID": "1997-051NX", "EPOCH": "2025-12-22T18:31:37.744896", "MEAN_MOTION": 14.47639956, "ECCENTRICITY": 0.0010302, "INCLINATION": 86.324, "RA_OF_ASC_NODE": 4.4893, "ARG_OF_PERICENTER": 63.2582, "MEAN_ANOMALY": 296.9674, "EPHEMERIS_TYPE": 0, "CLASSIFICATION_TYPE": "U", "NORAD_CAT_ID": 35051, "ELEMENT_SET_NO": 999, "REV_AT_EPOCH": 87141, "BSTAR": 0.00060447572, "MEAN_MOTION_DOT": 2.248e-05, "MEAN_MOTION_DDOT": 0}, "tle": {"line1": "1 35051U 97051NX  25356.77196464  .00002248  00000+0  60448-3 0  9991", "line2": "2 35051  86.3240   4.4893 0010302  63.2582 296.9674 14.47639956871417"}}, "geometry": {"type": "Point", "coordinates": [177.70376151162444, 51.862222971094255]}}, {"type": "Feature", "properties": {"norad_id": 35052, "name": "IRIDIUM 33 DEB", "group": "iridium-33-debris", "lat": 29.266926096278826, "lon": -167.94229114378876, "alt_km": 764.9525160948988, "timestamp": "2025-12-27T13:34:49.680902+00:00", "meta": {"OBJECT_NAME": "IRIDIUM 33 DEB", "OBJECT_ID": "1997-051NY", "EPOCH": "2025-12-26T00:09:21.492000", "MEAN_MOTION": 14.38507246, "ECCENTRICITY": 0.00130035, "INCLINATION": 86.3301, "RA_OF_ASC_NODE": 14.7874, "ARG_OF_PERICENTER": 47.6773, "MEAN_ANOMALY": 312.5525, "EPHEMERIS_TYPE": 0, "CLASSIFICATION_TYPE": "U", "NORAD_CAT_ID": 35052, "ELEMENT_SET_NO": 999, "REV_AT_EPOCH": 87466, "BSTAR": 0.00018800221, "MEAN_MOTION_DOT": 5.94e-06, "MEAN_MOTION_DDOT": 0}, "tle": {"line1": "1 35052U 97051NY  25360.00649875  .00000594  00000+0  18800-3 0  9999", "line2": "2 35052  86.3301  14.7874 0013003  47.6773 312.5525 14.38507246874664"}}, "geometry": {"type": "Point", "coordinates": [-167.94229114378876, 29.266926096278826]}}, {"type": "Feature", "properties": {"norad_id": 35080, "name": "IRIDIUM 33 DEB", "group": "iridium-33-debris", "lat": 23.30845185710866, "lon": 46.91898847001542, "alt_km": 614.6590604083349, "timestamp": "2025-12-27T13:34:49.680912+00:00", "meta": {"OBJECT_NAME": "IRIDIUM 33 DEB", "OBJECT_ID": "1997-051PF", "EPOCH": "2025-12-26T21:19:55.703424", "MEAN_MOTION": 14.87648712, "ECCENTRICITY": 0.0057997, "INCLINATION": 86.2085, "RA_OF_ASC_NODE": 45.606, "ARG_OF_PERICENTER": 130.4806, "MEAN_ANOMALY": 230.1496, "EPHEMERIS_TYPE": 0, "CLASSIFICATION_TYPE": "U", "NORAD_CAT_ID": 35080, "ELEMENT_SET_NO": 999, "REV_AT_EPOCH": 69898, "BSTAR": 0.0073607, "MEAN_MOTION_DOT": 0.00069659, "MEAN_MOTION_DDOT": 0}, "tle": {"line1": "1 35080U 97051PF  25360.88883916  .00069659  00000+0  73607-2 0  9994", "line2": "2 35080  86.2085  45.6060 0057997 130.4806 230.1496 14.87648712698980"}}, "geometry": {"type": "Point", "coordinates": [46.91898847001542, 23.30845185710866]}}, {"type": "Feature", "properties": {"norad_id": 35297, "name": "IRIDIUM 33 DEB", "group": "iridium-33-debris", "lat": 53.430328845641114, "lon": 61.32079986215051, "alt_km": 727.00183684277, "timestamp": "2025-12-27T13:34:49.680922+00:00", "meta": {"OBJECT_NAME": "IRIDIUM 33 DEB", "OBJECT_ID": "1997-051PM", "EPOCH": "2025-12-26T10:44:46.667040", "MEAN_MOTION": 14.4521519, "ECCENTRICITY": 0.0018076, "INCLINATION": 86.3846, "RA_OF_ASC_NODE": 56.909, "ARG_OF_PERICENTER": 100.7298, "MEAN_ANOMALY": 259.594, "EPHEMERIS_TYPE": 0, "CLASSIFICATION_TYPE": "U", "NORAD_CAT_ID": 35297, "ELEMENT_SET_NO": 999, "REV_AT_EPOCH": 70624, "BSTAR": 0.00060666, "MEAN_MOTION_DOT": 2.149e-05, "MEAN_MOTION_DDOT": 0}, "tle": {"line1": "1 35297U 97051PM  25360.44776235  .00002149  00000+0  60666-3 0  9994", "line2": "2 35297  86.3846  56.9090 0018076 100.7298 259.5940 14.45215190706246"}}, "geometry": {"type": "Point", "coordinates": [61.32079986215051, 53.430328845641114]}}, {"type": "Feature", "properties": {"norad_id": 35299, "name": "IRIDIUM 33 DEB", "group": "iridium-33-debris", "lat": 61.16927057790117, "lon": -160.042816669889, "alt_km": 730.7728707845299, "timestamp": "2025-12-27T13:34:49.680932+00:00", "meta": {"OBJECT_NAME": "IRIDIUM 33 DEB", "OBJECT_ID": "1997-051PP", "EPOCH": "2025-12-27T01:30:21.709728", "MEAN_MOTION": 14.40934949, "ECCENTRICITY": 0.0058407, "INCLINATION": 86.2878, "RA_OF_ASC_NODE": 26.9497, "ARG_OF_PERICENTER": 56.6826, "MEAN_ANOMALY": 333.1612, "EPHEMERIS_TYPE": 0, "CLASSIFICATION_TYPE": "U", "NORAD_CAT_ID": 35299, "ELEMENT_SET_NO": 999, "REV_AT_EPOCH": 86537, "BSTAR": 0.00098170121, "MEAN_MOTION_DOT": 3.234e-05, "MEAN_MOTION_DDOT": 0}, "tle": {"line1": "1 35299U 97051PP  25361.06275127  .00003234  00000+0  98170-3 0  9996", "line2": "2 35299  86.2878  26.9497 0058407  56.6826 333.1612 14.40934949865378"}}, "geometry": {"type": "Point", "coordinates": [-160.042816669889, 61.16927057790117]}}, {"type": "Feature", "properties": {"norad_id": 35480, "name": "IRIDIUM 33 DEB", "group": "iridium-33-debris", "lat": -28.079455609085457, "lon": 16.534364591743977, "alt_km": 731.9781464672878, "timestamp": "2025-12-27T13:34:49.680942+00:00", "meta": {"OBJECT_NAME": "IRIDIUM 33 DEB", "OBJECT_ID": "1997-051QA", "EPOCH": "2025-12-26T19:29:20.805504", "MEAN_MOTION": 14.49821486, "ECCENTRICITY": 0.00157721, "INCLINATION": 86.3559, "RA_OF_ASC_NODE": 18.8095, "ARG_OF_PERICENTER": 63.8067, "MEAN_ANOMALY": 296.4757, "EPHEMERIS_TYPE": 0, "CLASSIFICATION_TYPE": "U", "NORAD_CAT_ID": 35480, "ELEMENT_SET_NO": 999, "REV_AT_EPOCH": 87235, "BSTAR": 0.00059301191, "MEAN_MOTION_DOT": 2.31e-05, "MEAN_MOTION_DDOT": 0}, "tle": {"line1": "1 35480U 97051QA  25360.81204636  .00002310  00000+0  59301-3 0  9994", "line2": "2 35480  86.3559  18.8095 0015772  63.8067 296.4757 14.49821486872353"}}, "geometry": {"type": "Point", "coordinates": [16.534364591743977, -28.079455609085457]}}]}